satname,norad_id,inclination_deg,eccentricity,mean_motion_rev_per_day,perigee_km,apogee_km,l1,l2
STARLINK-1008,44714,53.0558,0.0001815,15.06411186,545.9203301306497,548.4342192123559,1 44714U 19074B   25338.49714067  .00007104  00000+0  49519-3 0  9992,2 44714  53.0558 253.9524 0001815  77.1178 283.0013 15.06411186334408
STARLINK-1011,44717,53.0358,0.0005465,16.24096377,204.8536181626814,212.05276124002467,1 44717U 19074E   25338.25347182  .02665464  11913-4  96215-3 0  9995,2 44717  53.0358 214.9690 0005465 226.0644 133.9945 16.24096377334924
STARLINK-1012,44718,53.0534,0.000172,15.06410957,545.986822338964,548.369130690885,1 44718U 19074F   25338.47502506  .00010889  00000+0  74856-3 0  9993,2 44718  53.0534 254.0472 0001720  81.0262 279.0921 15.06410957334399
STARLINK-1017,44723,53.0496,0.0006377,15.17460407,509.1242602870252,517.9138784378893,1 44723U 19074L   25338.49247584  .00033163  00000+0  16437-2 0  9993,2 44723  53.0496 248.2214 0006377  68.5914 291.5760 15.17460407334485
STARLINK-1019,44724,53.0531,0.0004683,15.55458041,397.6469011992931,403.9960737186475,1 44724U 19074M   25338.71359273  .00138242  00000+0  19634-2 0  9994,2 44724  53.0531 244.2679 0004683 110.6678 249.4834 15.55458041334556
STARLINK-1020,44725,53.055,0.0001402,15.0641725,546.1877632215419,548.1296161329274,1 44725U 19074N   25338.14513455  .00017812  00000+0  12111-2 0  9998,2 44725  53.0550 275.5342 0001402  95.7132 264.4017 15.06417250334065
STARLINK-1031,44736,53.0495,0.0008016,15.56839264,391.38058167129475,402.2421789145801,1 44736U 19074Z   25338.41253022  .00096433  00000+0  13092-2 0  9996,2 44736  53.0495 232.7184 0008016  64.2738 295.9099 15.56839264334703
STARLINK-1036,44741,53.0548,0.0001544,15.06442289,546.012697469957,548.1512050821102,1 44741U 19074AE  25338.24095623  .00019919  00000+0  13508-2 0  9990,2 44741  53.0548 275.0989 0001544  96.9433 263.1731 15.06442289334087
STARLINK-1039,44744,53.0501,0.0002473,15.14976332,519.3442459472953,522.7565840427515,1 44744U 19074AH  25338.26837627  .00057765  00000+0  30510-2 0  9996,2 44744  53.0501 291.1296 0002473  13.4798 346.6260 15.14976332333868
STARLINK-1042,44747,53.0452,0.000282,15.44851193,429.8949405955291,433.73575371932566,1 44747U 19074AL  25337.99175654  .00033592  00000+0  71058-3 0  9998,2 44747  53.0452 192.1769 0002820 165.0898 195.0191 15.44851193335256
STARLINK-1043,44748,53.0559,0.0002185,15.43252207,435.0294599586132,438.00746439558407,1 44748U 19074AM  25338.09887839  .00072618  00000+0  16025-2 0  9990,2 44748  53.0559 292.4223 0002185  92.0873 268.0383 15.43252207333836
STARLINK-1046,44751,53.0556,0.0001458,15.0643318,546.1001668902572,548.1195688769321,1 44751U 19074AQ  25338.16170906  .00017601  00000+0  11965-2 0  9991,2 44751  53.0556 295.4579 0001458  95.5157 264.5998 15.06433180333797
STARLINK-1047,44752,53.0701,7.48e-05,15.30156064,474.83361698710723,475.8588980824343,1 44752U 19074AR  25338.01484548  .00016306  00000+0  56218-3 0  9998,2 44752  53.0701 232.1313 0000748 298.7779  61.3146 15.30156064334689
STARLINK-1048,44753,53.0544,0.0001368,15.06435737,546.1546586461491,548.0494040451249,1 44753U 19074AS  25338.05482454  .00024485  00000+0  16553-2 0  9991,2 44753  53.0544 255.9378 0001368  93.1107 267.0039 15.06435737334338
STARLINK-1053,44758,53.0372,0.0004622,15.65782569,367.8695937861539,374.1084858973836,1 44758U 19074AX  25338.62152727  .00111994  00000+0  10751-2 0  9992,2 44758  53.0372 197.8783 0004622 144.6093 215.5229 15.65782569335218
STARLINK-1060,44765,53.0499,0.0009091,15.73349901,343.21489214035864,355.44677415458773,1 44765U 19074BE  25338.75002315  .00171886  00000+0  11939-2 0  9996,2 44765  53.0499 242.3215 0009091 105.7713 311.5469 15.73349901  5871
STARLINK-1063,44768,53.0542,0.0001684,15.06428731,545.9572890921345,548.2897168295303,1 44768U 19074BH  25338.68143322  .00022270  00000+0  15081-2 0  9999,2 44768  53.0542 293.1274 0001684  91.1857 268.9325 15.06428731333885
STARLINK-1067,44771,53.0555,0.0001567,15.06429286,546.036613966081,548.2069900746346,1 44771U 19074BL  25338.27228752  .00017120  00000+0  11645-2 0  9999,2 44771  53.0555 294.9646 0001567  99.5320 260.5846 15.06429286333817
STARLINK-1068,44772,53.0555,0.0001937,15.06452182,545.710223202339,548.3930412784694,1 44772U 19074BM  25338.06403519  .00035984  00000+0  24189-2 0  9998,2 44772  53.0555 275.8984 0001937 111.7333 248.3863 15.06452182334054
STARLINK-1112,44925,53.0482,0.0005794,15.61331531,379.89200296610124,387.7277470048339,1 44925U 20001M   25338.34166220  .00092990  00000+0  10664-2 0  9999,2 44925  53.0482   0.1078 0005794 354.8945   5.2008 15.61331531326248
STARLINK-1114,44927,53.0555,0.0001546,15.06450387,545.9864983317211,548.12776835775,1 44927U 20001P   25338.50081506  .00025969  00000+0  17535-2 0  9998,2 44927  53.0555  53.9395 0001546  68.7027 291.4127 15.06450387325501
STARLINK-1123,44930,53.0558,0.0001508,15.06398866,546.1706904004823,548.2593765737811,1 44930U 20001S   25338.51556130 -.00001175  00000+0 -59964-4 0  9992,2 44930  53.0558  53.8713 0001508  90.2527 269.8635 15.06398866325500
STARLINK-1144,44933,53.0418,0.0001246,15.70785506,355.8116655597605,357.489974684534,1 44933U 20001V   25338.75002315  .00138923  00000+0  10828-2 0  9996,2 44933  53.0418 333.1555 0001246 132.7653 256.0270 15.70785506  5989
STARLINK-1094,44941,53.0558,0.0001345,15.0643261,546.1801688492305,548.0430607266089,1 44941U 20001AD  25338.46211376  .00020808  00000+0  14104-2 0  9995,2 44941  53.0558  34.1144 0001345 102.6641 257.4499 15.06432610325772
STARLINK-1122,44949,53.0553,0.0001476,15.06429516,546.0989290312773,548.1432652215499,1 44949U 20001AM  25338.55057712  .00020001  00000+0  13568-2 0  9993,2 44949  53.0553  33.7108 0001476  79.4471 280.6684 15.06429516325783
STARLINK-1080,44961,53.0543,0.0001337,15.06410967,546.2520312584738,548.1038604749974,1 44961U 20001AZ  25338.41604779  .00008674  00000+0  60033-3 0  9995,2 44961  53.0543  14.3184 0001337  88.3915 271.7227 15.06410967326058
STARLINK-1090,44968,53.0545,0.0001399,15.06428591,546.1550880226714,548.0927760314516,1 44968U 20001BG  25338.48607323  .00019552  00000+0  13268-2 0  9991,2 44968  53.0545  14.0049 0001399  95.8049 264.3100 15.06428591326064
STARLINK-1107,44972,52.9993,0.000739,15.94827477,283.8682831419919,293.7220088537779,1 44972U 20001BL  25338.75002315  .01067907  53294-3  27251-2 0  9998,2 44972  52.9993 269.3610 0007390 128.9380 298.5301 15.94827477  6011
STARLINK-1132,45044,53.0547,0.0001531,15.06411394,546.11637167157,548.2369027072764,1 45044U 20006A   25338.37918693  .00003903  00000+0  28068-3 0  9993,2 45044  53.0547 334.4865 0001531  86.0479 274.0685 15.06411394322373
STARLINK-1131,45047,53.0557,0.0001353,15.06427896,546.1890739431101,548.0630501276964,1 45047U 20006D   25338.42163501  .00017944  00000+0  12196-2 0  9996,2 45047  53.0557 354.8350 0001353  97.9751 262.1392 15.06427896322094
STARLINK-1134,45048,53.0372,0.0004958,15.31699636,467.3454065387132,474.13675404312926,1 45048U 20006E   25338.26422177  .00134028  00000+0  42525-2 0  9998,2 45048  53.0372 327.7821 0004958 306.3136  53.7406 15.31699636322462
STARLINK-1156,45054,53.0548,0.0001426,15.06421468,546.1582170697066,548.1333077135414,1 45054U 20006L   25338.32573696  .00008245  00000+0  57141-3 0  9997,2 45054  53.0548 354.7235 0001426  90.5074 269.6079 15.06421468322083
STARLINK-1159,45057,53.0541,0.0006395,15.5580018,395.49309349530085,404.16211022107655,1 45057U 20006P   25338.75002315 -.00056941  00000+0 -80797-3 0  9993,2 45057  53.0541 342.1070 0006395  39.1965  83.1878 15.55800180  5906
STARLINK-1166,45060,53.0549,0.0001297,15.0641493,546.2675882433532,548.0640117896774,1 45060U 20006S   25338.28518860  .00003431  00000+0  24902-3 0  9992,2 45060  53.0549 354.9060 0001297  95.2572 264.8565 15.06414930322083
STARLINK-1169,45061,53.0541,0.0001249,15.06410754,546.3136267549398,548.0435705914888,1 45061U 20006T   25338.49159544  .00003495  00000+0  25332-3 0  9994,2 45061  53.0541 353.9818 0001249  83.6766 276.4365 15.06410754322110
STARLINK-1171,45062,53.0531,0.0010747,15.38356783,443.6288225433773,458.3073009631089,1 45062U 20006U   25338.75002315  .00054313  00000+0  14128-2 0  9992,2 45062  53.0531 343.4751 0010747  28.1892 124.7580 15.38356783  5834
STARLINK-1133,45064,53.056,0.0001372,15.06405247,546.2453210698613,548.1456323014636,1 45064U 20006W   25338.42341287  .00000632  00000+0  61322-4 0  9997,2 45064  53.0560 334.2859 0001372  96.0272 264.0873 15.06405247322385
STARLINK-1167,45071,53.055,0.0001516,15.06420882,546.0976852161011,548.1974314941945,1 45071U 20006AD  25338.38286088  .00005057  00000+0  35792-3 0  9994,2 45071  53.0550 334.4660 0001516  88.2694 271.8468 15.06420882322372
STARLINK-1168,45072,53.0554,0.0001395,15.06413449,546.2042586231646,548.1364193707441,1 45072U 20006AE  25338.32020741  .00006957  00000+0  48528-3 0  9992,2 45072  53.0554 334.7484 0001395  88.6029 271.5120 15.06413449322367
STARLINK-1172,45074,53.0549,0.0001405,15.06417539,546.1848000309483,548.1308078708589,1 45074U 20006AG  25338.39760649  .00004680  00000+0  33270-3 0  9998,2 45074  53.0549 334.4011 0001405  99.3899 260.7249 15.06417539322379
STARLINK-1153,45080,53.055,0.0001291,15.06417833,546.2628474580142,548.0509583437442,1 45080U 20006AN  25338.30915149  .00014138  00000+0  96563-3 0  9996,2 45080  53.0550 334.7982 0001291  89.0121 271.1016 15.06417833322369
STARLINK-1151,45081,53.0554,0.0002139,15.10135307,534.308095593381,537.2658722737087,1 45081U 20006AP  25338.40891330  .00043473  00000+0  26373-2 0  9998,2 45081  53.0554 334.2359 0002139 108.0190 252.1034 15.10135307322386
STARLINK-1185,45087,53.0562,0.0001616,15.06424691,546.0167605148972,548.255008711204,1 45087U 20006AV  25338.33679075  .00012827  00000+0  87784-3 0  9999,2 45087  53.0562 314.6757 0001616  93.0758 267.0416 15.06424691322658
